SZ-21 MODULE            
1 66515U 25246C   26067.73638915  .00047754  00000+0  41113-3 0  9994
2 66515  41.4736 209.2286 0001365 296.9264  63.1439 15.68463397 17929
SHENZHOU-22             
1 66645U 25272A   26067.81967659  .00029275  00000+0  34617-3 0  9995
2 66645  41.4664 213.4556 0006998 268.3248  91.6789 15.60610742267529
SOYUZ-MS 28             
1 66664U 25275A   26067.73890429  .00009449  00000+0  18227-3 0  9990
2 66664  51.6319  77.0569 0008050 171.0721 189.0412 15.48531098554521
DUPLEX                  
1 66906U 98067XS  26067.43022830  .00044619  00000+0  62980-3 0  9991
2 66906  51.6288  75.7492 0002272 106.3589 253.7653 15.56119236 14935
ISS OBJECT XT           
1 66907U 98067XT  26067.30898696  .00215395  00000+0  18024-2 0  9999
2 66907  51.6249  72.6759 0004713  69.3241 290.8261 15.68765418 14962
ISS OBJECT XU           
1 66908U 98067XU  26067.24358831  .00214540  00000+0  17893-2 0  9999
2 66908  51.6246  72.9860 0004911  71.7703 288.3828 15.68848873 14953
SILVERSAT               
1 66909U 98067XV  26067.56532025  .00238432  00000+0  17566-2 0  9997
2 66909  51.6250  70.6330 0005569  69.6016 290.5580 15.71749865 15012
ISS OBJECT XW           
1 66910U 98067XW  26067.30329623  .00193965  00000+0  16698-2 0  9995
2 66910  51.6242  72.6301 0005106  77.4385 282.7182 15.68140942 14969
ISS OBJECT XX           
1 66911U 98067XX  26067.56455839  .00301889  00000+0  19397-2 0  9998
2 66911  51.6209  69.8598 0006997  75.4922 284.6853 15.74751003 15019
ISS OBJECT XY           
1 66912U 98067XY  26067.23940008  .00130266  00000+0  13699-2 0  9998
2 66912  51.6269  74.4704 0003151  80.3151 279.8199 15.63375791 14927
ISS OBJECT XZ           
1 67683U 98067XZ  26067.24642413  .00054128  00000+0  89298-3 0  9995
2 67683  51.6305  79.0203 0009421 180.7238 179.3740 15.51696524  4568
GXIBA-1                 
1 67684U 98067YA  26067.28573024  .00113172  00000+0  16924-2 0  9991
2 67684  51.6303  78.5330 0010947 170.9783 189.1406 15.54070328  4573
CORAL                   
1 67685U 98067YB  26067.62864861  .00058319  00000+0  94707-3 0  9999
2 67685  51.6311  77.0726 0011361 178.8737 181.2281 15.52082391  4624
ISS OBJECT YC           
1 67686U 98067YC  26067.49475580  .00069722  00000+0  11105-2 0  9991
2 67686  51.6310  77.6801 0007925 145.9342 214.2158 15.52582009  4601
LEOPARD                 
1 67687U 98067YD  26067.30864436  .00058789  00000+0  96299-3 0  9993
2 67687  51.6314  78.6871 0007824 149.3708 210.7740 15.51875609  4491
ISS OBJECT YE           
1 67688U 98067YE  26067.94768744  .00060617  00000+0  97411-3 0  9999
2 67688  51.6313  75.4553 0007778 148.1271 212.0191 15.52396503  4591
